{
  "norad_id": 62736,
  "name": "STARLINK-32329",
  "history": [
    {
      "epoch": "2026-03-28T21:11:47.837184",
      "apogee_km": 483.3011149607091,
      "perigee_km": 482.6576794649791,
      "latitude_deg": 25.940003965947493,
      "longitude_deg": 178.3864857601002,
      "semi_major_axis_km": 6861.116397212844,
      "eccentricity": 4.689e-05,
      "inclination_deg": 43.001,
      "raan_deg": 45.9195,
      "arg_perigee_deg": 288.1469,
      "mean_anomaly_deg": 71.9331,
      "mean_motion_rev_day": 15.27603277
    },
    {
      "epoch": "2026-03-29T03:28:24.981312",
      "apogee_km": 483.38670311620353,
      "perigee_km": 482.4920187587368,
      "latitude_deg": 16.567023801408634,
      "longitude_deg": -156.5055763197597,
      "semi_major_axis_km": 6861.07636093747,
      "eccentricity": 6.52e-05,
      "inclination_deg": 43.0007,
      "raan_deg": 44.4396,
      "arg_perigee_deg": 213.5772,
      "mean_anomaly_deg": 146.5039,
      "mean_motion_rev_day": 15.27616648
    }
  ]
}